NORAD_CAT_ID,OBJECT_NAME,OBJECT_TYPE,EPOCH,MEAN_MOTION,ECCENTRICITY,INCLINATION,RA_OF_ASC_NODE,ARG_OF_PERICENTER,MEAN_ANOMALY,BSTAR,MEAN_MOTION_DOT,MEAN_MOTION_DDOT,TLE_LINE0,TLE_LINE1,TLE_LINE2,SEMIMAJOR_AXIS,PERIOD,APOGEE,PERIGEE,DECAYED
55776.0,STARLINK-5810,PAYLOAD,2024-02-23 10:03:59,14.98330064,0.0002458,70.0008,303.3517,272.1743,87.9135,-2.6579e-05,-4.1e-06,0.0,0 STARLINK-5810,1 55776U 23028AM  24054.41943627 -.00000410  00000-0 -26579-4 0  9996,2 55776  70.0008 303.3517 0002458 272.1743  87.9135 14.98330064 54903,6950.193,96.107,573.766,570.349,0.0
55776.0,STARLINK-5810,PAYLOAD,2024-02-23 19:40:47,14.98327475,0.0002769,69.9995,302.3417,270.153,89.9312,-2.0888e-05,-3.42e-06,0.0,0 STARLINK-5810,1 55776U 23028AM  24054.81999686 -.00000342  00000-0 -20888-4 0  9997,2 55776  69.9995 302.3417 0002769 270.1530  89.9312 14.98327475 54967,6950.201,96.107,573.99,570.141,0.0
55776.0,STARLINK-5810,PAYLOAD,2024-02-23 22:53:03,14.98329628,0.0002887,69.9995,302.0051,269.2913,90.7915,-1.63e-05,-2.87e-06,0.0,0 STARLINK-5810,1 55776U 23028AM  24054.95351532 -.00000287  00000-0 -16300-4 0  9996,2 55776  69.9995 302.0051 0002887 269.2913  90.7915 14.98329628 54986,6950.194,96.107,574.066,570.053,0.0
55776.0,STARLINK-5810,PAYLOAD,2024-02-24 10:06:00,14.98330072,0.0002821,69.9998,300.8263,269.6135,90.4701,1.5127e-05,8.8e-07,0.0,0 STARLINK-5810,1 55776U 23028AM  24055.42083423  .00000088  00000-0  15127-4 0  9993,2 55776  69.9998 300.8263 0002821 269.6135  90.4701 14.98330072 55052,6950.193,96.107,574.018,570.097,0.0
55776.0,STARLINK-5810,PAYLOAD,2024-02-25 02:07:20,14.98333194,0.0002852,69.9996,299.1431,269.6405,90.4427,4.6238e-05,4.59e-06,0.0,0 STARLINK-5810,1 55776U 23028AM  24056.08843066  .00000459  00000-0  46238-4 0  9992,2 55776  69.9996 299.1431 0002852 269.6405  90.4427 14.98333194 55155,6950.183,96.107,574.03,570.066,0.0
55776.0,STARLINK-5810,PAYLOAD,2024-02-25 22:57:04,14.98335375,0.0002714,69.9998,296.9552,267.972,92.1129,5.9017e-05,6.11e-06,0.0,0 STARLINK-5810,1 55776U 23028AM  24056.95630662  .00000611  00000-0  59017-4 0  9993,2 55776  69.9998 296.9552 0002714 267.9720  92.1129 14.98335375 55289,6950.176,96.107,573.928,570.155,0.0
55776.0,STARLINK-5810,PAYLOAD,2024-02-26 02:09:20,14.98337868,0.0002691,70.0,296.619,269.3766,90.7084,7.2307e-05,7.7e-06,0.0,0 STARLINK-5810,1 55776U 23028AM  24057.08982423  .00000770  00000-0  72307-4 0  9996,2 55776  70.0000 296.6190 0002691 269.3766  90.7084 14.98337868 55307,6950.169,96.106,573.904,570.163,0.0
55776.0,STARLINK-5810,PAYLOAD,2024-02-26 19:46:50,14.983253,0.0002906,69.9991,294.7671,269.9961,90.0865,-9.7032e-05,-1.25e-05,0.0,0 STARLINK-5810,1 55776U 23028AM  24057.82419597 -.00001250  00000-0 -97032-4 0  9993,2 55776  69.9991 294.7671 0002906 269.9961  90.0865 14.98325300 55418,6950.207,96.107,574.092,570.053,0.0
55776.0,STARLINK-5810,PAYLOAD,2024-02-26 21:22:58,14.98325103,0.0002886,69.9992,294.5989,270.4385,89.6443,-9.7209e-05,-1.253e-05,0.0,0 STARLINK-5810,1 55776U 23028AM  24057.89095634 -.00001253  00000-0 -97209-4 0  9991,2 55776  69.9992 294.5989 0002886 270.4385  89.6443 14.98325103 55421,6950.208,96.107,574.079,570.067,0.0
55776.0,STARLINK-5810,PAYLOAD,2024-02-27 02:11:22,14.9832568,0.0002958,69.999,294.0935,272.2763,87.8057,-8.5386e-05,-1.112e-05,0.0,0 STARLINK-5810,1 55776U 23028AM  24058.09123586 -.00001112  00000-0 -85386-4 0  9999,2 55776  69.9990 294.0935 0002958 272.2763  87.8057 14.98325680 55459,6950.206,96.107,574.127,570.015,0.0
55776.0,STARLINK-5810,PAYLOAD,2024-02-27 19:48:51,14.9833308,0.0003162,69.9983,292.2415,276.6585,83.4214,-5.3033e-05,-7.26e-06,0.0,0 STARLINK-5810,1 55776U 23028AM  24058.82559047 -.00000726  00000-0 -53033-4 0  9999,2 55776  69.9983 292.2415 0003162 276.6585  83.4214 14.98333080 55564,6950.183,96.107,574.246,569.851,0.0
55776.0,STARLINK-5810,PAYLOAD,2024-02-27 21:24:58,14.9833386,0.0003061,69.9985,292.0737,273.0611,87.0197,-4.2963e-05,-6.06e-06,0.0,0 STARLINK-5810,1 55776U 23028AM  24058.89234938 -.00000606  00000-0 -42963-4 0  9992,2 55776  69.9985 292.0737 0003061 273.0611  87.0197 14.98333860 55577,6950.181,96.107,574.173,569.919,0.0
55776.0,STARLINK-5810,PAYLOAD,2024-02-28 08:37:56,14.98309699,0.0002744,69.9987,290.8952,254.3937,105.6919,0.00025471,2.946e-05,0.0,0 STARLINK-5810,1 55776U 23028AM  24059.35967697  .00002946  00000-0  25471-3 0  9990,2 55776  69.9987 290.8952 0002744 254.3937 105.6919 14.98309699 55644,6950.256,96.108,574.028,570.214,0.0
55776.0,STARLINK-5810,PAYLOAD,2024-02-28 19:50:52,14.98321055,0.0002893,69.9986,289.7167,271.8762,88.2066,1.8993e-05,1.34e-06,0.0,0 STARLINK-5810,1 55776U 23028AM  24059.82699669  .00000134  00000-0  18993-4 0  9992,2 55776  69.9986 289.7167 0002893 271.8762  88.2066 14.98321055 55710,6950.221,96.108,574.096,570.075,0.0
55776.0,STARLINK-5810,PAYLOAD,2024-02-28 21:27:00,14.98321947,0.000284,69.9988,289.5485,270.8383,89.2451,3.2407e-05,2.94e-06,0.0,0 STARLINK-5810,1 55776U 23028AM  24059.89375600  .00000294  00000-0  32407-4 0  9998,2 55776  69.9988 289.5485 0002840 270.8383  89.2451 14.98321947 55723,6950.218,96.108,574.057,570.109,0.0
55776.0,STARLINK-5810,PAYLOAD,2024-02-29 08:39:56,14.98326063,0.0002884,69.9987,288.3701,270.5121,89.5708,1.4148e-05,7.6e-07,0.0,0 STARLINK-5810,1 55776U 23028AM  24060.36107561  .00000076  00000-0  14148-4 0  9991,2 55776  69.9987 288.3701 0002884 270.5121  89.5708 14.98326063 55794,6950.205,96.107,574.075,570.066,0.0
55776.0,STARLINK-5810,PAYLOAD,2024-02-29 18:16:45,14.98332359,0.0002923,69.9986,287.3599,270.2298,89.8526,5.4267e-08,-9.2e-07,0.0,0 STARLINK-5810,1 55776U 23028AM  24060.76163204 -.00000092  00000-0  54267-7 0  9999,2 55776  69.9986 287.3599 0002923 270.2298  89.8526 14.98332359 55856,6950.186,96.107,574.082,570.019,0.0
55776.0,STARLINK-5810,PAYLOAD,2024-02-29 21:29:01,14.98331838,0.0002937,69.9987,287.0233,270.4089,89.6734,-5.0068e-06,-1.53e-06,0.0,0 STARLINK-5810,1 55776U 23028AM  24060.89515237 -.00000153  00000-0 -50068-5 0  9992,2 55776  69.9987 287.0233 0002937 270.4089  89.6734 14.98331838 55876,6950.187,96.107,574.093,570.011,0.0
55776.0,STARLINK-5810,PAYLOAD,2024-03-01 08:41:57,14.98330623,0.000297,69.9988,285.8457,271.1281,88.9537,3.6291e-05,3.4e-06,0.0,0 STARLINK-5810,1 55776U 23028AM  24061.36247131  .00000340  00000-0  36291-4 0  9997,2 55776  69.9988 285.8457 0002970 271.1281  88.9537 14.98330623 55942,6950.191,96.107,574.12,569.992,0.0
55776.0,STARLINK-5810,PAYLOAD,2024-03-01 19:54:53,14.98330323,0.0002994,69.9988,284.6674,271.0378,89.0438,7.595e-05,8.13e-06,0.0,0 STARLINK-5810,1 55776U 23028AM  24061.82979008  .00000813  00000-0  75950-4 0  9993,2 55776  69.9988 284.6674 0002994 271.0378  89.0438 14.98330323 56010,6950.192,96.107,574.138,569.976,0.0
55776.0,STARLINK-5810,PAYLOAD,2024-03-01 21:31:01,14.98332509,0.0002976,69.9987,284.4989,270.6298,89.452,8.1286e-05,8.77e-06,0.0,0 STARLINK-5810,1 55776U 23028AM  24061.89654844  .00000877  00000-0  81286-4 0  9997,2 55776  69.9987 284.4989 0002976 270.6298  89.4520 14.98332509 56027,6950.185,96.107,574.119,569.982,0.0
55776.0,STARLINK-5810,PAYLOAD,2024-03-02 00:43:17,14.98333519,0.000297,69.9986,284.1622,270.683,89.3989,8.886e-05,9.67e-06,0.0,0 STARLINK-5810,1 55776U 23028AM  24062.03006725  .00000967  00000-0  88860-4 0  9998,2 55776  69.9986 284.1622 0002970 270.6830  89.3989 14.98333519 56045,6950.182,96.107,574.111,569.983,0.0
55776.0,STARLINK-5810,PAYLOAD,2024-03-02 19:56:54,14.9833236,0.0002915,69.9986,282.142,270.6486,89.4339,-6.0175e-06,-1.65e-06,0.0,0 STARLINK-5810,1 55776U 23028AM  24062.83118896 -.00000165  00000-0 -60175-5 0  9991,2 55776  69.9986 282.1420 0002915 270.6486  89.4339 14.98332360 56161,6950.186,96.107,574.077,570.025,0.0
55776.0,STARLINK-5810,PAYLOAD,2024-03-02 21:33:02,14.98331668,0.0002885,69.9987,281.9736,270.1843,89.8985,-7.2215e-06,-1.79e-06,0.0,0 STARLINK-5810,1 55776U 23028AM  24062.89794930 -.00000179  00000-0 -72215-5 0  9999,2 55776  69.9987 281.9736 0002885 270.1843  89.8985 14.98331668 56179,6950.188,96.107,574.058,570.048,0.0
55776.0,STARLINK-5810,PAYLOAD,2024-03-03 15:10:31,14.98332784,0.0002883,69.9985,280.1214,267.1234,92.9595,-4.8948e-05,-6.77e-06,0.0,0 STARLINK-5810,1 55776U 23028AM  24063.63230828 -.00000677  00000-0 -48948-4 0  9991,2 55776  69.9985 280.1214 0002883 267.1234  92.9595 14.98332784 56281,6950.184,96.107,574.053,570.046,0.0
55776.0,STARLINK-5810,PAYLOAD,2024-03-03 21:35:03,14.98334726,0.0002846,69.9984,279.4486,261.5817,98.5019,-2.4252e-05,-3.82e-06,0.0,0 STARLINK-5810,1 55776U 23028AM  24063.89934541 -.00000382  00000-0 -24252-4 0  9997,2 55776  69.9984 279.4486 0002846 261.5817  98.5019 14.98334726 56322,6950.178,96.107,574.021,570.065,0.0
55776.0,STARLINK-5810,PAYLOAD,2024-03-04 00:47:19,14.98335652,0.000284,69.9985,279.1118,262.8951,97.1885,-1.2973e-05,-2.48e-06,0.0,0 STARLINK-5810,1 55776U 23028AM  24064.03286412 -.00000248  00000-0 -12973-4 0  9999,2 55776  69.9985 279.1118 0002840 262.8951  97.1885 14.98335652 56346,6950.175,96.107,574.014,570.067,0.0
55776.0,STARLINK-5810,PAYLOAD,2024-03-04 07:11:51,14.98334694,0.000285,69.9985,278.4387,266.6418,93.4415,1.1714e-06,-7.9e-07,0.0,0 STARLINK-5810,1 55776U 23028AM  24064.29990360 -.00000079  00000-0  11714-5 0  9995,2 55776  69.9985 278.4387 0002850 266.6418  93.4415 14.98334694 56384,6950.178,96.107,574.024,570.063,0.0
55776.0,STARLINK-5810,PAYLOAD,2024-03-04 21:37:03,14.98333945,0.0002758,69.9987,276.9231,266.6419,93.4424,4.9866e-05,5.02e-06,0.0,0 STARLINK-5810,1 55776U 23028AM  24064.90074056  .00000502  00000-0  49866-4 0  9996,2 55776  69.9987 276.9231 0002758 266.6419  93.4424 14.98333945 56473,6950.181,96.107,573.963,570.129,0.0
55776.0,STARLINK-5810,PAYLOAD,2024-03-04 23:13:11,14.98334554,0.000279,69.9986,276.7548,267.4902,92.5938,5.5109e-05,5.65e-06,0.0,0 STARLINK-5810,1 55776U 23028AM  24064.96749982  .00000565  00000-0  55109-4 0  9995,2 55776  69.9986 276.7548 0002790 267.4902  92.5938 14.98334554 56481,6950.179,96.107,573.983,570.105,0.0
